{
  "norad_id": 57248,
  "name": "STARLINK-5514",
  "history": [
    {
      "epoch": "2026-03-28T22:00:01.999584Z",
      "apogee_km": 488.1295802820214,
      "perigee_km": 485.33750013590816,
      "latitude_deg": 25.091411098164244,
      "longitude_deg": 144.56406892266952,
      "height_km": 487.23801651724887,
      "semi_major_axis_km": 6864.8705402089645,
      "eccentricity": 0.00020336,
      "inclination_deg": 42.9995,
      "raan_deg": 270.9441,
      "arg_perigee_deg": 281.3259,
      "mean_anomaly_deg": 116.9498,
      "mean_motion_rev_day": 15.26350364
    },
    {
      "epoch": "2026-03-29T04:00:01.999584Z",
      "apogee_km": 487.4823832212105,
      "perigee_km": 484.6913897889581,
      "latitude_deg": -17.841028398682,
      "longitude_deg": 2.8741913168138877,
      "height_km": 489.29998319358884,
      "semi_major_axis_km": 6864.223886505084,
      "eccentricity": 0.0002033,
      "inclination_deg": 43.0,
      "raan_deg": 269.5337,
      "arg_perigee_deg": 266.1308,
      "mean_anomaly_deg": 67.3834,
      "mean_motion_rev_day": 15.26566057
    },
    {
      "epoch": "2026-03-30T04:00:01.999584Z",
      "apogee_km": 486.87926293927467,
      "perigee_km": 484.19597798315135,
      "latitude_deg": 41.566105631504215,
      "longitude_deg": 87.3566300212334,
      "height_km": 489.57336606607015,
      "semi_major_axis_km": 6863.674620461213,
      "eccentricity": 0.00019547,
      "inclination_deg": 43.0,
      "raan_deg": 263.8937,
      "arg_perigee_deg": 279.2033,
      "mean_anomaly_deg": 156.6939,
      "mean_motion_rev_day": 15.26749306
    },
    {
      "epoch": "2026-03-30T14:00:03.000384Z",
      "apogee_km": 486.73281332735496,
      "perigee_km": 484.3759589791789,
      "latitude_deg": -19.289694859185882,
      "longitude_deg": 65.47574955251696,
      "height_km": 489.293837511358,
      "semi_major_axis_km": 6863.691386153267,
      "eccentricity": 0.00017169,
      "inclination_deg": 43.0,
      "raan_deg": 261.5451,
      "arg_perigee_deg": 275.5317,
      "mean_anomaly_deg": 293.2169,
      "mean_motion_rev_day": 15.26743712
    },
    {
      "epoch": "2026-03-30T22:00:00.999936Z",
      "apogee_km": 486.9799413561241,
      "perigee_km": 484.29798953538557,
      "latitude_deg": -37.536714048260414,
      "longitude_deg": -23.615448291475037,
      "height_km": 495.68125625435925,
      "semi_major_axis_km": 6863.775965445755,
      "eccentricity": 0.00019537,
      "inclination_deg": 43.0005,
      "raan_deg": 259.6664,
      "arg_perigee_deg": 285.194,
      "mean_anomaly_deg": 317.676,
      "mean_motion_rev_day": 15.26715492
    },
    {
      "epoch": "2026-03-31T20:00:01.999008Z",
      "apogee_km": 486.9998466302759,
      "perigee_km": 484.29277049337907,
      "latitude_deg": -39.08717475084186,
      "longitude_deg": 5.310004261099765,
      "height_km": 496.2472387675778,
      "semi_major_axis_km": 6863.783308561828,
      "eccentricity": 0.0001972,
      "inclination_deg": 43.0008,
      "raan_deg": 254.4961,
      "arg_perigee_deg": 284.8943,
      "mean_anomaly_deg": 322.2086,
      "mean_motion_rev_day": 15.26713042
    },
    {
      "epoch": "2026-04-01T16:54:17.815104Z",
      "apogee_km": 486.7933897393277,
      "perigee_km": 484.30598968297636,
      "latitude_deg": -7.656664244012388e-06,
      "longitude_deg": 165.94218872836734,
      "height_km": 485.04265899211674,
      "semi_major_axis_km": 6863.686689711151,
      "eccentricity": 0.0001812,
      "inclination_deg": 43.0014,
      "raan_deg": 249.58,
      "arg_perigee_deg": 283.2144,
      "mean_anomaly_deg": 76.8505,
      "mean_motion_rev_day": 15.26745279
    },
    {
      "epoch": "2026-04-02T16:27:24.794496Z",
      "apogee_km": 486.3814927538988,
      "perigee_km": 484.710597753362,
      "latitude_deg": 1.3157999941862532e-05,
      "longitude_deg": 166.15948721536589,
      "height_km": 485.3125436208279,
      "semi_major_axis_km": 6863.68304525363,
      "eccentricity": 0.00012172,
      "inclination_deg": 42.9997,
      "raan_deg": 244.0436,
      "arg_perigee_deg": 270.6926,
      "mean_anomaly_deg": 89.3786,
      "mean_motion_rev_day": 15.26746495
    },
    {
      "epoch": "2026-04-04T15:33:39.314880Z",
      "apogee_km": 486.6474393114613,
      "perigee_km": 484.45792230328334,
      "latitude_deg": 1.3305190251232264e-05,
      "longitude_deg": 166.5946913851993,
      "height_km": 485.38763143274764,
      "semi_major_axis_km": 6863.689680807372,
      "eccentricity": 0.0001595,
      "inclination_deg": 43.0018,
      "raan_deg": 232.9738,
      "arg_perigee_deg": 266.9726,
      "mean_anomaly_deg": 93.0943,
      "mean_motion_rev_day": 15.26744281
    },
    {
      "epoch": "2026-04-05T15:06:27.866880Z",
      "apogee_km": 486.6875904607232,
      "perigee_km": 483.0927368324046,
      "latitude_deg": 3.6236484058184896e-05,
      "longitude_deg": 166.88738084320727,
      "height_km": 484.73329692449886,
      "semi_major_axis_km": 6863.027163646564,
      "eccentricity": 0.0002619,
      "inclination_deg": 43.0006,
      "raan_deg": 227.4358,
      "arg_perigee_deg": 267.9145,
      "mean_anomaly_deg": 92.1407,
      "mean_motion_rev_day": 15.26965361
    },
    {
      "epoch": "2026-04-07T14:11:25.810944Z",
      "apogee_km": 484.66754037350347,
      "perigee_km": 482.56235487597223,
      "latitude_deg": -1.4699893102376722e-05,
      "longitude_deg": 167.63876770906325,
      "height_km": 483.0688128049227,
      "semi_major_axis_km": 6861.751947624737,
      "eccentricity": 0.0001534,
      "inclination_deg": 43.0026,
      "raan_deg": 216.3623,
      "arg_perigee_deg": 287.884,
      "mean_anomaly_deg": 72.1844,
      "mean_motion_rev_day": 15.27391047
    }
  ]
}